OBJECT_NAME,OBJECT_ID,EPOCH,MEAN_MOTION,ECCENTRICITY,INCLINATION,RA_OF_ASC_NODE,ARG_OF_PERICENTER,MEAN_ANOMALY,EPHEMERIS_TYPE,CLASSIFICATION_TYPE,NORAD_CAT_ID,ELEMENT_SET_NO,REV_AT_EPOCH,BSTAR,MEAN_MOTION_DOT,MEAN_MOTION_DDOT
SAUDISAT 1C (SO-50),2002-058C,2026-07-12T21:56:09.315744,14.83095930,.00745949,64.5517,49.3840,257.6999,101.5749,0,U,27607,999,26827,.64575255E-4,.395E-5,0
SAUDISAT 2,2004-025F,2026-07-13T11:22:53.109984,14.56697734,.0023979,98.5519,195.1367,213.5917,146.3761,0,U,28371,999,16957,.34843E-4,.106E-5,0
SAUDISAT 3,2007-012B,2026-07-13T10:32:45.677184,14.71439767,.0015483,98.1467,144.8591,139.9353,220.2998,0,U,31118,999,3160,.25645E-4,.108E-5,0
PISAT,2016-059B,2026-07-13T12:06:17.035776,14.69027907,.0030381,97.8190,193.8276,119.9868,240.4360,0,U,41784,999,52360,.88466E-4,.475E-5,0
FLYING LAPTOP,2017-042G,2026-07-13T12:19:53.507136,15.01306088,.0019756,97.4792,349.0548,37.9105,322.3507,0,U,42831,999,49040,.16438E-3,.2065E-4,0
SALSAT,2020-068K,2026-07-13T12:03:32.995872,15.30157505,.0008994,97.8854,199.1769,199.0887,161.0016,0,U,46495,999,31938,.15263E-3,.4373E-4,0
